NORAD_CAT_ID,OBJECT_NAME,OBJECT_TYPE,EPOCH,MEAN_MOTION,ECCENTRICITY,INCLINATION,RA_OF_ASC_NODE,ARG_OF_PERICENTER,MEAN_ANOMALY,BSTAR,MEAN_MOTION_DOT,MEAN_MOTION_DDOT,TLE_LINE0,TLE_LINE1,TLE_LINE2,SEMIMAJOR_AXIS,PERIOD,APOGEE,PERIGEE,DECAYED
53596.0,STARLINK-4668,PAYLOAD,2023-08-26 23:12:18,15.08843296,0.0001417,53.218,79.7469,107.7813,252.3334,7.4658e-05,9.01e-06,0.0,0 STARLINK-4668,1 53596U 22104J   23238.96688606  .00000901  00000-0  74658-4 0  9998,2 53596  53.2180  79.7469 0001417 107.7813 252.3334 15.08843296 55863,6917.87,95.437,540.716,538.755,0.0
53596.0,STARLINK-4668,PAYLOAD,2023-08-27 18:16:57,15.08837014,0.0001754,53.2189,76.1819,115.7531,244.3642,-1.9105e-05,-5.92e-06,0.0,0 STARLINK-4668,1 53596U 22104J   23239.76177439 -.00000592  00000-0 -19105-4 0  9998,2 53596  53.2189  76.1819 0001754 115.7531 244.3642 15.08837014 55293,6917.89,95.438,540.968,538.541,0.0
53596.0,STARLINK-4668,PAYLOAD,2023-08-27 19:52:20,15.08837367,0.000163,53.2184,75.8842,107.9631,252.1539,-1.0047e-05,-4.48e-06,0.0,0 STARLINK-4668,1 53596U 22104J   23239.82801451 -.00000448  00000-0 -10047-4 0  9999,2 53596  53.2184  75.8842 0001630 107.9631 252.1539 15.08837367 55997,6917.888,95.438,540.881,538.626,0.0
53596.0,STARLINK-4668,PAYLOAD,2023-08-28 19:43:07,15.08840691,0.0001403,53.2182,71.4229,93.9763,266.1389,6.7003e-05,7.79e-06,0.0,0 STARLINK-4668,1 53596U 22104J   23240.82161117  .00000779  00000-0  67003-4 0  9998,2 53596  53.2182  71.4229 0001403  93.9763 266.1389 15.08840691 56144,6917.878,95.438,540.714,538.773,0.0
53596.0,STARLINK-4668,PAYLOAD,2023-08-28 22:53:53,15.08845443,0.0001441,53.2184,70.8278,104.6158,255.4994,5.7e-05,6.19e-06,0.0,0 STARLINK-4668,1 53596U 22104J   23240.95408802  .00000619  00000-0  57000-4 0  9996,2 53596  53.2184  70.8278 0001441 104.6158 255.4994 15.08845443 55471,6917.864,95.437,540.726,538.732,0.0
53596.0,STARLINK-4668,PAYLOAD,2023-08-29 05:15:27,15.08826039,0.0001535,53.2188,69.6387,101.7065,258.4099,-0.00010389,-1.94e-05,0.0,0 STARLINK-4668,1 53596U 22104J   23241.21906627 -.00001940  00000-0 -10389-3 0  9992,2 53596  53.2188  69.6387 0001535 101.7065 258.4099 15.08826039 55515,6917.923,95.438,540.85,538.726,0.0
53596.0,STARLINK-4668,PAYLOAD,2023-08-29 17:58:32,15.08825825,0.0001366,53.2179,67.258,95.3734,264.7414,-5.1435e-05,-1.106e-05,0.0,0 STARLINK-4668,1 53596U 22104J   23241.74898964 -.00001106  00000-0 -51435-4 0  9996,2 53596  53.2179  67.2580 0001366  95.3734 264.7414 15.08825825 56285,6917.924,95.438,540.734,538.844,0.0
53596.0,STARLINK-4668,PAYLOAD,2023-08-30 16:13:55,15.0884202,0.0001152,53.2169,63.0932,88.8111,271.3013,4.7584e-05,4.7e-06,0.0,0 STARLINK-4668,1 53596U 22104J   23242.67634049  .00000470  00000-0  47584-4 0  9992,2 53596  53.2169  63.0932 0001152  88.8111 271.3013 15.08842020 55732,6917.874,95.437,540.536,538.942,0.0
53596.0,STARLINK-4668,PAYLOAD,2023-08-30 19:24:42,15.0884284,0.0001204,53.218,62.5011,100.8293,259.2835,5.8373e-05,6.41e-06,0.0,0 STARLINK-4668,1 53596U 22104J   23242.80881955  .00000641  00000-0  58373-4 0  9995,2 53596  53.2180  62.5011 0001204 100.8293 259.2835 15.08842840 56447,6917.872,95.437,540.57,538.904,0.0
53596.0,STARLINK-4668,PAYLOAD,2023-08-31 20:50:51,15.08848259,0.0001406,53.2178,57.7406,114.6075,245.5064,0.00012578,1.715e-05,0.0,0 STARLINK-4668,1 53596U 22104J   23243.86865421  .00001715  00000-0  12578-3 0  9991,2 53596  53.2178  57.7406 0001406 114.6075 245.5064 15.08848259 56603,6917.855,95.437,540.693,538.747,0.0
53596.0,STARLINK-4668,PAYLOAD,2023-09-01 04:47:48,15.08836172,0.0001324,53.218,56.2539,91.818,268.2964,8.2073e-05,1.018e-05,0.0,0 STARLINK-4668,1 53596U 22104J   23244.19986453  .00001018  00000-0  82073-4 0  9991,2 53596  53.2180  56.2539 0001324  91.8180 268.2964 15.08836172 55969,6917.892,95.438,540.673,538.841,0.0
53596.0,STARLINK-4668,PAYLOAD,2023-09-01 20:41:39,15.0884615,0.0001344,53.2172,53.2801,80.9999,279.1145,-2.8334e-06,-3.33e-06,0.0,0 STARLINK-4668,1 53596U 22104J   23244.86226013 -.00000333  00000-0 -28334-5 0  9996,2 53596  53.2172  53.2801 0001344  80.9999 279.1145 15.08846150 56755,6917.862,95.437,540.656,538.797,0.0
53596.0,STARLINK-4668,PAYLOAD,2023-09-02 11:00:07,15.08841151,0.000153,53.217,50.6058,77.8227,282.2936,7.1173e-06,-1.75e-06,0.0,0 STARLINK-4668,1 53596U 22104J   23245.45842255 -.00000175  00000-0  71173-5 0  9996,2 53596  53.2170  50.6058 0001530  77.8227 282.2936 15.08841151 56843,6917.877,95.437,540.8,538.683,0.0
53596.0,STARLINK-4668,PAYLOAD,2023-09-02 20:32:25,15.08850802,0.0001372,53.2177,48.8191,89.545,270.5699,3.1058e-05,2.07e-06,0.0,0 STARLINK-4668,1 53596U 22104J   23245.85585459  .00000207  00000-0  31058-4 0  9992,2 53596  53.2177  48.8191 0001372  89.5450 270.5699 15.08850802 56905,6917.847,95.437,540.662,538.763,0.0
53596.0,STARLINK-4668,PAYLOAD,2023-09-03 10:50:54,15.08843182,0.0001409,53.2197,46.1423,89.7285,270.3869,5.4149e-05,5.74e-06,0.0,0 STARLINK-4668,1 53596U 22104J   23246.45201722  .00000574  00000-0  54149-4 0  9990,2 53596  53.2197  46.1423 0001409  89.7285 270.3869 15.08843182 56309,6917.871,95.437,540.71,538.761,0.0
53596.0,STARLINK-4668,PAYLOAD,2023-09-04 10:41:41,15.08833978,0.0001067,53.2173,41.686,77.7293,282.3819,2.1664e-05,5.7e-07,0.0,0 STARLINK-4668,1 53596U 22104J   23247.44562309  .00000057  00000-0  21664-4 0  9993,2 53596  53.2173  41.6860 0001067  77.7293 282.3819 15.08833978 56450,6917.899,95.438,540.502,539.026,0.0
53596.0,STARLINK-4668,PAYLOAD,2023-09-04 17:03:14,15.0883233,0.0001206,53.2177,40.4945,88.9885,271.1245,-4.0228e-06,-3.52e-06,0.0,0 STARLINK-4668,1 53596U 22104J   23247.71058576 -.00000352  00000-0 -40228-5 0  9997,2 53596  53.2177  40.4945 0001206  88.9885 271.1245 15.08832330 57182,6917.904,95.438,540.603,538.935,0.0
53596.0,STARLINK-4668,PAYLOAD,2023-09-05 16:54:01,15.08839897,0.0001157,53.2184,36.034,90.4275,269.685,1.4247e-05,-6.1e-07,0.0,0 STARLINK-4668,1 53596U 22104J   23248.70418234 -.00000061  00000-0  14247-4 0  9995,2 53596  53.2184  36.0340 0001157  90.4275 269.6850 15.08839897 56645,6917.881,95.438,540.546,538.945,0.0
53596.0,STARLINK-4668,PAYLOAD,2023-09-06 11:58:39,15.08829321,0.0001139,53.2183,32.4661,94.3251,265.7872,3.9419e-05,3.39e-06,0.0,0 STARLINK-4668,1 53596U 22104J   23249.49906994  .00000339  00000-0  39419-4 0  9992,2 53596  53.2183  32.4661 0001139  94.3251 265.7872 15.08829321 57459,6917.913,95.438,540.566,538.99,0.0
53596.0,STARLINK-4668,PAYLOAD,2023-09-06 19:55:34,15.08840445,0.0001192,53.2186,30.9782,103.8757,256.2368,0.00012171,1.65e-05,0.0,0 STARLINK-4668,1 53596U 22104J   23249.83026131  .00001650  00000-0  12171-3 0  9998,2 53596  53.2186  30.9782 0001192 103.8757 256.2368 15.08840445 57506,6917.879,95.438,540.569,538.919,0.0
53596.0,STARLINK-4668,PAYLOAD,2023-09-07 02:17:07,15.08835611,0.0001237,53.2185,29.7895,82.4198,277.6934,7.7091e-05,9.39e-06,0.0,0 STARLINK-4668,1 53596U 22104J   23250.09522749  .00000939  00000-0  77091-4 0  9996,2 53596  53.2185  29.7895 0001237  82.4198 277.6934 15.08835611 56859,6917.894,95.438,540.615,538.903,0.0
53596.0,STARLINK-4668,PAYLOAD,2023-09-07 11:49:26,15.08837578,0.0001263,53.2184,28.0052,85.4387,274.6749,-1.453e-05,-5.19e-06,0.0,0 STARLINK-4668,1 53596U 22104J   23250.49267026 -.00000519  00000-0 -14530-4 0  9999,2 53596  53.2184  28.0052 0001263  85.4387 274.6749 15.08837578 57606,6917.888,95.438,540.627,538.879,0.0
53596.0,STARLINK-4668,PAYLOAD,2023-09-07 18:10:58,15.08843572,0.0001288,53.2183,26.816,82.6093,277.5045,3.7787e-05,3.14e-06,0.0,0 STARLINK-4668,1 53596U 22104J   23250.75762496  .00000314  00000-0  37787-4 0  9999,2 53596  53.2183  26.8160 0001288  82.6093 277.5045 15.08843572 57647,6917.869,95.437,540.625,538.843,0.0
53596.0,STARLINK-4668,PAYLOAD,2023-09-08 03:43:17,15.0883996,0.0001255,53.2188,25.033,89.3408,270.7728,8.0187e-06,-1.6e-06,0.0,0 STARLINK-4668,1 53596U 22104J   23251.15506743 -.00000160  00000-0  80187-5 0  9998,2 53596  53.2188  25.0330 0001255  89.3408 270.7728 15.08839960 57010,6917.881,95.438,540.614,538.877,0.0
53596.0,STARLINK-4668,PAYLOAD,2023-09-08 13:15:36,15.08838883,0.0001048,53.219,23.2481,92.9983,267.1129,8.1734e-05,1.013e-05,0.0,0 STARLINK-4668,1 53596U 22104J   23251.55250587  .00001013  00000-0  81734-4 0  9999,2 53596  53.2190  23.2481 0001048  92.9983 267.1129 15.08838883 57768,6917.884,95.438,540.474,539.024,0.0
53596.0,STARLINK-4668,PAYLOAD,2023-09-08 16:26:22,15.08848813,0.0001372,53.2202,22.6511,66.832,293.2817,7.6218e-05,9.26e-06,0.0,0 STARLINK-4668,1 53596U 22104J   23251.68498107  .00000926  00000-0  76218-4 0  9998,2 53596  53.2202  22.6511 0001372  66.8320 293.2817 15.08848813 57098,6917.853,95.437,540.668,538.769,0.0
53596.0,STARLINK-4668,PAYLOAD,2023-09-09 08:20:14,15.08832831,0.0001296,53.2185,19.6799,80.4609,279.6529,6.2394e-06,-1.89e-06,0.0,0 STARLINK-4668,1 53596U 22104J   23252.34739321 -.00000189  00000-0  62394-5 0  9991,2 53596  53.2185  19.6799 0001296  80.4609 279.6529 15.08832831 57191,6917.902,95.438,540.664,538.871,0.0
53596.0,STARLINK-4668,PAYLOAD,2023-09-09 13:06:24,15.08831682,0.0001307,53.2185,18.7875,84.9225,275.1916,1.0519e-05,-1.2e-06,0.0,0 STARLINK-4668,1 53596U 22104J   23252.54611480 -.00000120  00000-0  10519-4 0  9994,2 53596  53.2185  18.7875 0001307  84.9225 275.1916 15.08831682 57916,6917.906,95.438,540.675,538.867,0.0
53596.0,STARLINK-4668,PAYLOAD,2023-09-10 01:49:28,15.08842258,0.0001362,53.2188,16.409,87.0829,273.0319,7.6656e-05,9.32e-06,0.0,0 STARLINK-4668,1 53596U 22104J   23253.07602659  .00000932  00000-0  76656-4 0  9995,2 53596  53.2188  16.4090 0001362  87.0829 273.0319 15.08842258 57306,6917.873,95.437,540.681,538.796,0.0
53596.0,STARLINK-4668,PAYLOAD,2023-09-10 12:57:10,15.08846894,0.0001379,53.2186,14.3277,86.5028,273.6122,8.2803e-05,1.03e-05,0.0,0 STARLINK-4668,1 53596U 22104J   23253.53970319  .00001030  00000-0  82803-4 0  9998,2 53596  53.2186  14.3277 0001379  86.5028 273.6122 15.08846894 58063,6917.859,95.437,540.678,538.77,0.0
